NORAD_CAT_ID,OBJECT_NAME,OBJECT_TYPE,EPOCH,MEAN_MOTION,ECCENTRICITY,INCLINATION,RA_OF_ASC_NODE,ARG_OF_PERICENTER,MEAN_ANOMALY,BSTAR,MEAN_MOTION_DOT,MEAN_MOTION_DDOT,TLE_LINE0,TLE_LINE1,TLE_LINE2,SEMIMAJOR_AXIS,PERIOD,APOGEE,PERIGEE,DECAYED
51891.0,STARLINK-3549,PAYLOAD,2023-08-27 02:31:43,15.08840381,0.000145,53.2175,194.2284,94.7047,265.4111,6.4872e-05,7.45e-06,0.0,0 STARLINK-3549,1 51891U 22022AR  23239.10536368  .00000745  00000-0  64872-4 0  9990,2 51891  53.2175 194.2284 0001450  94.7047 265.4111 15.08840381 83560,6917.879,95.438,540.747,538.741,0.0
51891.0,STARLINK-3549,PAYLOAD,2023-08-27 07:17:52,15.08843576,0.0001436,53.2178,193.3373,87.878,272.2377,8.1031e-05,1.002e-05,0.0,0 STARLINK-3549,1 51891U 22022AR  23239.30408158  .00001002  00000-0  81031-4 0  9990,2 51891  53.2178 193.3373 0001436  87.8780 272.2377 15.08843576 83595,6917.869,95.437,540.728,538.741,0.0
51891.0,STARLINK-3549,PAYLOAD,2023-08-28 00:47:07,15.08835169,0.0001427,53.2179,190.0662,92.3115,267.804,3.3596e-05,2.47e-06,0.0,0 STARLINK-3549,1 51891U 22022AR  23240.03272965  .00000247  00000-0  33596-4 0  9990,2 51891  53.2179 190.0662 0001427  92.3115 267.8040 15.08835169 83703,6917.895,95.438,540.747,538.773,0.0
51891.0,STARLINK-3549,PAYLOAD,2023-08-28 13:30:12,15.08837989,0.0001357,53.2173,187.6889,87.3035,272.8113,4.6274e-05,4.49e-06,0.0,0 STARLINK-3549,1 51891U 22022AR  23240.56264832  .00000449  00000-0  46274-4 0  9993,2 51891  53.2173 187.6889 0001357  87.3035 272.8113 15.08837989 83784,6917.887,95.438,540.69,538.813,0.0
51891.0,STARLINK-3549,PAYLOAD,2023-08-29 06:59:27,15.08837417,0.0001521,53.2166,184.4174,103.0181,257.0981,0.00011952,1.615e-05,0.0,0 STARLINK-3549,1 51891U 22022AR  23241.29128785  .00001615  00000-0  11952-3 0  9990,2 51891  53.2166 184.4174 0001521 103.0181 257.0981 15.08837417 83895,6917.888,95.438,540.805,538.701,0.0
51891.0,STARLINK-3549,PAYLOAD,2023-08-29 13:20:59,15.08839613,0.0001362,53.2166,183.2273,88.1314,271.9834,1.5426e-05,-4.2e-07,0.0,0 STARLINK-3549,1 51891U 22022AR  23241.55624931 -.00000042  00000-0  15426-4 0  9998,2 51891  53.2166 183.2273 0001362  88.1314 271.9834 15.08839613 83933,6917.882,95.438,540.689,538.804,0.0
51891.0,STARLINK-3549,PAYLOAD,2023-08-30 13:11:47,15.08838603,0.0001489,53.2171,178.7667,87.9605,272.1557,3.9861e-05,3.46e-06,0.0,0 STARLINK-3549,1 51891U 22022AR  23242.54985217  .00000346  00000-0  39861-4 0  9990,2 51891  53.2171 178.7667 0001489  87.9605 272.1557 15.08838603 84085,6917.885,95.438,540.78,538.72,0.0
51891.0,STARLINK-3549,PAYLOAD,2023-08-31 05:05:38,15.08843132,0.0001498,53.2169,175.794,84.9626,275.1537,5.4844e-05,5.85e-06,0.0,0 STARLINK-3549,1 51891U 22022AR  23243.21224987  .00000585  00000-0  54844-4 0  9998,2 51891  53.2169 175.7940 0001498  84.9626 275.1537 15.08843132 84188,6917.871,95.437,540.772,538.7,0.0
51891.0,STARLINK-3549,PAYLOAD,2023-09-01 01:45:39,15.08836851,0.0001408,53.2163,171.928,89.8905,270.2248,5.2016e-05,5.4e-06,0.0,0 STARLINK-3549,1 51891U 22022AR  23244.07337478  .00000540  00000-0  52016-4 0  9993,2 51891  53.2163 171.9280 0001408  89.8905 270.2248 15.08836851 84312,6917.89,95.438,540.729,538.781,0.0
51891.0,STARLINK-3549,PAYLOAD,2023-09-01 19:14:53,15.08843447,0.0001203,53.2168,168.6582,84.9911,275.1219,0.00012216,1.657e-05,0.0,0 STARLINK-3549,1 51891U 22022AR  23244.80200809  .00001657  00000-0  12216-3 0  9998,2 51891  53.2168 168.6582 0001203  84.9911 275.1219 15.08843447 84424,6917.87,95.437,540.567,538.903,0.0
51891.0,STARLINK-3549,PAYLOAD,2023-09-02 04:47:11,15.08847551,0.0001837,53.2164,166.871,96.1453,263.9749,0.00015355,2.157e-05,0.0,0 STARLINK-3549,1 51891U 22022AR  23245.19944384  .00002157  00000-0  15355-3 0  9997,2 51891  53.2164 166.8710 0001837  96.1453 263.9749 15.08847551 84481,6917.857,95.437,540.993,538.451,0.0
51891.0,STARLINK-3549,PAYLOAD,2023-09-03 01:27:13,15.08838714,0.0001069,53.2162,163.0082,83.6424,276.469,1.2316e-05,-9.2e-07,0.0,0 STARLINK-3549,1 51891U 22022AR  23246.06057378 -.00000092  00000-0  12316-4 0  9994,2 51891  53.2162 163.0082 0001069  83.6424 276.4690 15.08838714 84616,6917.884,95.438,540.489,539.01,0.0
51891.0,STARLINK-3549,PAYLOAD,2023-09-04 01:18:01,15.08837236,0.0001315,53.2168,158.5488,87.064,273.0503,-8.0903e-05,-1.575e-05,0.0,0 STARLINK-3549,1 51891U 22022AR  23247.05417994 -.00001575  00000-0 -80903-4 0  9993,2 51891  53.2168 158.5488 0001315  87.0640 273.0503 15.08837236 84763,6917.889,95.438,540.664,538.844,0.0
51891.0,STARLINK-3549,PAYLOAD,2023-09-04 10:50:20,15.08829221,0.0001167,53.2177,156.7644,92.1328,267.9798,9.6943e-05,1.255e-05,0.0,0 STARLINK-3549,1 51891U 22022AR  23247.45162196  .00001255  00000-0  96943-4 0  9992,2 51891  53.2177 156.7644 0001167  92.1328 267.9798 15.08829221 84822,6917.913,95.438,540.586,538.971,0.0
51891.0,STARLINK-3549,PAYLOAD,2023-09-05 02:44:11,15.08844406,0.0001132,53.2177,153.791,89.3083,270.8038,9.1049e-05,1.162e-05,0.0,0 STARLINK-3549,1 51891U 22022AR  23248.11401650  .00001162  00000-0  91049-4 0  9996,2 51891  53.2177 153.7910 0001132  89.3083 270.8038 15.08844406 84926,6917.867,95.437,540.515,538.949,0.0
51891.0,STARLINK-3549,PAYLOAD,2023-09-06 02:34:58,15.08837267,0.0001109,53.2179,149.3311,82.2108,277.901,0.0001558,2.192e-05,0.0,0 STARLINK-3549,1 51891U 22022AR  23249.10762194  .00002192  00000-0  15580-3 0  9998,2 51891  53.2179 149.3311 0001109  82.2108 277.9010 15.08837267 85070,6917.889,95.438,540.521,538.987,0.0
51891.0,STARLINK-3549,PAYLOAD,2023-09-07 02:25:44,15.08849732,0.0001085,53.2168,144.8694,74.8459,285.2653,7.8919e-05,9.69e-06,0.0,0 STARLINK-3549,1 51891U 22022AR  23250.10121487  .00000969  00000-0  78919-4 0  9990,2 51891  53.2168 144.8694 0001085  74.8459 285.2653 15.08849732 85223,6917.851,95.437,540.466,538.965,0.0
51891.0,STARLINK-3549,PAYLOAD,2023-09-07 16:44:13,15.08841804,0.0001274,53.2163,142.1916,85.8487,274.2651,3.3689e-05,2.48e-06,0.0,0 STARLINK-3549,1 51891U 22022AR  23250.69738025  .00000248  00000-0  33689-4 0  9991,2 51891  53.2163 142.1916 0001274  85.8487 274.2651 15.08841804 85317,6917.875,95.437,540.621,538.859,0.0
51891.0,STARLINK-3549,PAYLOAD,2023-09-08 02:16:32,15.08844533,0.0001074,53.2164,140.4085,85.1388,274.9727,7.8507e-05,9.62e-06,0.0,0 STARLINK-3549,1 51891U 22022AR  23251.09481593  .00000962  00000-0  78507-4 0  9992,2 51891  53.2164 140.4085 0001074  85.1388 274.9727 15.08844533 85376,6917.867,95.437,540.475,538.989,0.0
51891.0,STARLINK-3549,PAYLOAD,2023-09-08 21:21:10,15.08832401,0.0001151,53.2161,136.8396,86.6462,273.4662,0.00016289,2.305e-05,0.0,0 STARLINK-3549,1 51891U 22022AR  23251.88970018  .00002305  00000-0  16289-3 0  9995,2 51891  53.2161 136.8396 0001151  86.6462 273.4662 15.08832401 85498,6917.904,95.438,540.565,538.972,0.0
51891.0,STARLINK-3549,PAYLOAD,2023-09-09 02:07:18,15.08852944,0.0001209,53.2166,135.9467,100.3381,259.7747,-7.0424e-05,-1.409e-05,0.0,0 STARLINK-3549,1 51891U 22022AR  23252.08841394 -.00001409  00000-0 -70424-4 0  9990,2 51891  53.2166 135.9467 0001209 100.3381 259.7747 15.08852944 85529,6917.841,95.437,540.542,538.869,0.0
51891.0,STARLINK-3549,PAYLOAD,2023-09-10 01:58:06,15.08842999,0.000135,53.2171,131.4852,109.7512,250.3626,6.297e-05,7.14e-06,0.0,0 STARLINK-3549,1 51891U 22022AR  23253.08201699  .00000714  00000-0  62970-4 0  9992,2 51891  53.2171 131.4852 0001350 109.7512 250.3626 15.08842999 85678,6917.871,95.437,540.67,538.802,0.0
51891.0,STARLINK-3549,PAYLOAD,2023-09-10 19:27:21,15.08838177,0.000133,53.217,128.214,110.3919,249.7216,4.6542e-05,4.53e-06,0.0,0 STARLINK-3549,1 51891U 22022AR  23253.81066195  .00000453  00000-0  46542-4 0  9990,2 51891  53.2170 128.2140 0001330 110.3919 249.7216 15.08838177 85780,6917.886,95.438,540.671,538.831,0.0
51891.0,STARLINK-3549,PAYLOAD,2023-09-11 08:10:26,15.08840954,0.0001139,53.2169,125.8371,100.7715,259.3405,7.8804e-05,9.67e-06,0.0,0 STARLINK-3549,1 51891U 22022AR  23254.34058027  .00000967  00000-0  78804-4 0  9990,2 51891  53.2169 125.8371 0001139 100.7715 259.3405 15.08840954 85863,6917.877,95.437,540.53,538.955,0.0
51891.0,STARLINK-3549,PAYLOAD,2023-09-12 00:04:17,15.08839766,0.0001367,53.218,122.8678,114.8022,245.3113,3.8649e-05,3.27e-06,0.0,0 STARLINK-3549,1 51891U 22022AR  23255.00298435  .00000327  00000-0  38649-4 0  9996,2 51891  53.2180 122.8678 0001367 114.8022 245.3113 15.08839766 85964,6917.881,95.438,540.692,538.8,0.0
51891.0,STARLINK-3549,PAYLOAD,2023-09-12 20:44:18,15.08840576,0.0001224,53.2168,118.9997,99.7702,260.3429,5.1949e-05,5.39e-06,0.0,0 STARLINK-3549,1 51891U 22022AR  23255.86410546  .00000539  00000-0  51949-4 0  9992,2 51891  53.2168 118.9997 0001224  99.7702 260.3429 15.08840576 86091,6917.879,95.438,540.59,538.897,0.0
51891.0,STARLINK-3549,PAYLOAD,2023-09-12 23:55:04,15.08846492,0.0001181,53.217,118.4046,96.3743,263.7384,0.00010401,1.368e-05,0.0,0 STARLINK-3549,1 51891U 22022AR  23255.99658073  .00001368  00000-0  10401-3 0  9993,2 51891  53.2170 118.4046 0001181  96.3743 263.7384 15.08846492 86117,6917.861,95.437,540.543,538.909,0.0
51891.0,STARLINK-3549,PAYLOAD,2023-09-13 20:35:05,15.08849967,0.0001177,53.2171,114.5381,89.7175,270.3952,0.0001215,1.647e-05,0.0,0 STARLINK-3549,1 51891U 22022AR  23256.85769684  .00001647  00000-0  12150-3 0  9993,2 51891  53.2171 114.5381 0001177  89.7175 270.3952 15.08849967 86246,6917.85,95.437,540.529,538.901,0.0
51891.0,STARLINK-3549,PAYLOAD,2023-09-13 23:45:51,15.08850616,0.0001163,53.216,113.9432,88.2804,271.8321,0.00022439,3.286e-05,0.0,0 STARLINK-3549,1 51891U 22022AR  23256.99017618  .00003286  00000-0  22439-3 0  9993,2 51891  53.2160 113.9432 0001163  88.2804 271.8321 15.08850616 86263,6917.848,95.437,540.517,538.908,0.0
51891.0,STARLINK-3549,PAYLOAD,2023-09-14 20:25:53,15.08830003,0.0001235,53.2165,110.0761,84.3893,275.724,-0.00012176,-2.225e-05,0.0,0 STARLINK-3549,1 51891U 22022AR  23257.85131029 -.00002225  00000-0 -12176-3 0  9993,2 51891  53.2165 110.0761 0001235  84.3893 275.7240 15.08830003 86391,6917.911,95.438,540.63,538.922,0.0
